[{"OBJECT_NAME":"FORTE","OBJECT_ID":"1997-047A","EPOCH":"2026-03-09T21:41:12.798240","MEAN_MOTION":14.27898785,"ECCENTRICITY":0.00196357,"INCLINATION":69.9517,"RA_OF_ASC_NODE":238.2652,"ARG_OF_PERICENTER":49.0734,"MEAN_ANOMALY":311.2084,"EPHEMERIS_TYPE":0,"CLASSIFICATION_TYPE":"U","NORAD_CAT_ID":24920,"ELEMENT_SET_NO":999,"REV_AT_EPOCH":48451,"BSTAR":0.0001374801,"MEAN_MOTION_DOT":2.83e-6,"MEAN_MOTION_DDOT":0},{"OBJECT_NAME":"CZ-6A DEB","OBJECT_ID":"2022-151JZ","EPOCH":"2026-03-09T21:52:18.178464","MEAN_MOTION":13.97262102,"ECCENTRICITY":0.01387097,"INCLINATION":98.8763,"RA_OF_ASC_NODE":42.9396,"ARG_OF_PERICENTER":2.5536,"MEAN_ANOMALY":357.6305,"EPHEMERIS_TYPE":0,"CLASSIFICATION_TYPE":"U","NORAD_CAT_ID":54521,"ELEMENT_SET_NO":999,"REV_AT_EPOCH":16918,"BSTAR":0.00068149076,"MEAN_MOTION_DOT":9.93e-6,"MEAN_MOTION_DDOT":0}]
